OBJECT_NAME,OBJECT_ID,EPOCH,MEAN_MOTION,ECCENTRICITY,INCLINATION,RA_OF_ASC_NODE,ARG_OF_PERICENTER,MEAN_ANOMALY,EPHEMERIS_TYPE,CLASSIFICATION_TYPE,NORAD_CAT_ID,ELEMENT_SET_NO,REV_AT_EPOCH,BSTAR,MEAN_MOTION_DOT,MEAN_MOTION_DDOT
BIRKELAND,2023-001G,2026-06-27T22:21:32.003424,15.40262938,.00080298,97.3350,246.9295,74.7101,285.5033,0,U,55015,999,19400,.25529471E-3,.10202E-3,0
ION SCV-008,2023-001AU,2026-06-27T20:13:06.637152,15.28694471,.00140062,97.5719,275.3390,340.3075,19.7622,0,U,55051,999,19296,.21128445E-3,.5832E-4,0
ION SCV-007,2023-001BD,2026-06-27T21:32:46.832928,14.77562225,.001111,97.9003,241.7002,305.0967,54.9201,0,U,55060,999,18783,.64815206E-4,.412E-5,0
HUYGENS,2023-001CN,2026-06-27T22:21:38.459232,15.40261573,.00103668,97.3253,246.1454,53.0826,307.1368,0,U,55093,999,19402,.23042862E-3,.9206E-4,0
SHARJAHSAT-1,2023-001CZ,2026-06-27T21:34:57.916416,15.49480641,.00063919,97.3179,247.8154,73.0763,287.1188,0,U,55104,999,19415,.38600325E-3,.2119E-3,0
HORUS 1,2023-025A,2026-06-27T22:13:11.415648,15.23370537,.00021298,97.3467,253.2944,138.1055,222.0345,0,U,55690,999,18568,.22976614E-3,.5393E-4,0
HORUS 2,2023-032A,2026-06-27T23:02:48.795936,15.23535381,.00023063,97.3539,254.1457,95.8742,264.2759,0,U,55844,999,18312,.24910765E-3,.5882E-4,0
GLOBAL-19,2023-041B,2026-06-27T22:37:08.338368,15.38261637,.00072824,42.0002,139.1551,88.0697,272.0976,0,U,55982,999,18358,.33929662E-3,.12847E-3,0
ION SCV-010,2023-054Q,2026-06-27T17:10:27.583392,15.26281948,.00133845,97.3775,68.0827,159.9240,200.2527,0,U,56192,999,17780,.17902873E-3,.458E-4,0
TELEOS-2,2023-057C,2026-06-28T00:29:02.642208,14.96328873,.0004,9.9941,125.2894,71.3337,288.7311,0,U,56310,999,17442,-.2168E-6,.688E-5,0
SNIPE 4,2023-072B,2026-06-27T22:01:20.005824,15.42738021,.00038108,97.5242,25.2656,286.4864,73.5964,0,U,56744,999,17176,.43906913E-3,.19119E-3,0
SNIPE 2,2023-072C,2026-06-27T22:17:28.143744,15.47377685,.0003133,97.5234,28.3963,326.8807,33.2246,0,U,56745,999,17190,.4741792E-3,.24203E-3,0
2023-072G,2023-072G,2026-06-27T21:40:44.726016,15.51167201,.00016859,97.4890,27.1860,316.6666,43.4453,0,U,56749,999,17212,.49344441E-3,.28783E-3,0
GEISAT PRECURSOR,2023-084C,2026-06-27T21:52:57.114624,15.34793058,.0004185,97.6230,320.2191,311.9156,48.1729,0,U,56934,999,16917,.22354282E-3,.7457E-4,0
BLACKJACK ACES-3,2023-084U,2026-06-27T20:17:07.078848,15.18570837,.00016534,97.6220,314.1177,7.0032,353.1225,0,U,56950,999,16878,.27438837E-3,.5602E-4,0
BLACKJACK ACES-2,2023-084Z,2026-06-27T22:00:33.789600,15.18606444,.00007232,97.6217,314.2747,114.1863,245.9447,0,U,56955,999,16880,.34959639E-3,.7165E-4,0
BLACKJACK ACES-1,2023-084AA,2026-06-27T21:43:10.900128,15.18584410,.00012669,97.6208,314.0350,126.3520,233.7831,0,U,56956,999,11852,.32707318E-3,.6694E-4,0
ION SCV-011,2023-084AB,2026-06-27T19:11:42.769248,15.28943422,.00072154,98.1375,7.0632,11.4999,348.6403,0,U,56957,999,16743,.18060457E-3,.4992E-4,0
GHOST-3,2023-084AC,2026-06-27T23:00:03.101472,15.48226596,.00059076,97.6221,328.1104,249.6828,110.3787,0,U,56958,999,16968,.33809399E-3,.17737E-3,0
AFR-1,2023-084AJ,2026-06-27T21:39:39.434400,15.28640874,.00091599,97.6282,315.8521,305.5297,54.5087,0,U,56964,999,16886,.16508855E-3,.4523E-4,0
METEOR-M2 3,2023-091A,2026-06-27T22:03:09.719136,14.24047580,.00048582,98.6078,233.6775,129.3488,230.8122,0,U,57166,999,15604,.16972398E-4,-.4E-7,0
UMKA 1 (RS40S),2023-091G,2026-06-27T22:47:49.593984,15.20939248,.00142583,97.5051,237.6058,84.4704,275.8157,0,U,57172,999,16564,.27545868E-3,.6043E-4,0
2023-091H,2023-091H,2026-06-27T22:01:24.820896,15.28863575,.00110508,97.5051,242.1972,80.4934,279.7554,0,U,57173,999,16594,.41253905E-3,.11519E-3,0
2023-091J,2023-091J,2026-06-27T23:04:50.706336,15.14000510,.00148226,97.5053,231.9044,109.4397,250.8437,0,U,57174,999,16526,.2388815E-3,.4282E-4,0
CUBEBEL 2 (EU11S),2023-091K,2026-06-27T21:57:17.496576,15.29416927,.00110382,97.5054,242.2284,82.0190,278.2302,0,U,57175,999,16594,.47933498E-3,.1363E-3,0
SITRO-AIS 5 (KATYS),2023-091L,2026-06-27T22:18:47.689632,15.29696691,.00123007,97.5063,242.9322,70.0903,290.1661,0,U,57176,999,16598,.44536957E-3,.12772E-3,0
ZORKIY-2M 1,2023-091M,2026-06-27T22:27:16.972704,15.21040222,.00147167,97.5091,237.8669,81.8623,278.4282,0,U,57177,999,16563,.29900219E-3,.6587E-4,0
CUBESX-HSE 3 (RS42S),2023-091N,2026-06-27T22:56:10.880736,15.31479800,.00114189,97.5095,244.6799,60.9784,299.2600,0,U,57178,999,16607,.42751752E-3,.1295E-3,0
MONITOR-3 (RS58S),2023-091Q,2026-06-27T22:31:35.573952,15.28052672,.00126416,97.5086,242.4642,67.3400,292.9175,0,U,57180,999,16593,.39329689E-3,.10713E-3,0
MONITOR-4 (RS57S),2023-091S,2026-06-27T22:00:34.516224,15.28137301,.00126615,97.5080,242.4143,67.6781,292.5799,0,U,57182,999,16593,.39337421E-3,.10743E-3,0
