BIRKELAND               
1 55015U 23001G   26178.93162041  .00010202  00000+0  25529-3 0  9992
2 55015  97.3350 246.9295 0008029  74.7101 285.5033 15.40262938194001
ION SCV-008             
1 55051U 23001AU  26178.84243793  .00005832  00000+0  21128-3 0  9990
2 55051  97.5719 275.3390 0014006 340.3075  19.7622 15.28694471192969
ION SCV-007             
1 55060U 23001BD  26178.89776427  .00000412  00000+0  64815-4 0  9990
2 55060  97.9003 241.7002 0011110 305.0967  54.9201 14.77562225187835
HUYGENS                 
1 55093U 23001CN  26178.93169513  .00009206  00000+0  23043-3 0  9990
2 55093  97.3253 246.1454 0010366  53.0826 307.1368 15.40261573194027
SHARJAHSAT-1            
1 55104U 23001CZ  26178.89928144  .00021190  00000+0  38600-3 0  9992
2 55104  97.3179 247.8154 0006391  73.0763 287.1188 15.49480641194156
HORUS 1                 
1 55690U 23025A   26178.92582657  .00005393  00000+0  22977-3 0  9994
2 55690  97.3467 253.2944 0002129 138.1055 222.0345 15.23370537185681
HORUS 2                 
1 55844U 23032A   26178.96028699  .00005882  00000+0  24911-3 0  9991
2 55844  97.3539 254.1457 0002306  95.8742 264.2759 15.23535381183124
GLOBAL-19               
1 55982U 23041B   26178.94245762  .00012847  00000+0  33930-3 0  9994
2 55982  42.0002 139.1551 0007282  88.0697 272.0976 15.38261637183581
ION SCV-010             
1 56192U 23054Q   26178.71559703  .00004580  00000+0  17903-3 0  9997
2 56192  97.3775  68.0827 0013384 159.9240 200.2527 15.26281948177800
TELEOS-2                
1 56310U 23057C   26179.02016947  .00000688  00000+0 -21680-6 0  9991
2 56310   9.9941 125.2894 0004000  71.3337 288.7311 14.96328873174427
SNIPE 4                 
1 56744U 23072B   26178.91759266  .00019119  00000+0  43907-3 0  9995
2 56744  97.5242  25.2656 0003810 286.4864  73.5964 15.42738021171762
SNIPE 2                 
1 56745U 23072C   26178.92879796  .00024203  00000+0  47418-3 0  9999
2 56745  97.5234  28.3963 0003133 326.8807  33.2246 15.47377685171905
2023-072G               
1 56749U 23072G   26178.90329544  .00028783  00000+0  49344-3 0  9999
2 56749  97.4890  27.1860 0001685 316.6666  43.4453 15.51167201172123
GEISAT PRECURSOR        
1 56934U 23084C   26178.91177216  .00007457  00000+0  22354-3 0  9993
2 56934  97.6230 320.2191 0004185 311.9156  48.1729 15.34793058169178
BLACKJACK ACES-3        
1 56950U 23084U   26178.84522082  .00005602  00000+0  27439-3 0  9997
2 56950  97.6220 314.1177 0001653   7.0032 353.1225 15.18570837168780
BLACKJACK ACES-2        
1 56955U 23084Z   26178.91705775  .00007165  00000+0  34960-3 0  9995
2 56955  97.6217 314.2747 0000723 114.1863 245.9447 15.18606444168805
BLACKJACK ACES-1        
1 56956U 23084AA  26178.90498727  .00006694  00000+0  32707-3 0  9994
2 56956  97.6208 314.0350 0001266 126.3520 233.7831 15.18584410118526
ION SCV-011             
1 56957U 23084AB  26178.79980057  .00004992  00000+0  18060-3 0  9999
2 56957  98.1375   7.0632 0007215  11.4999 348.6403 15.28943422167432
GHOST-3                 
1 56958U 23084AC  26178.95836923  .00017737  00000+0  33809-3 0  9999
2 56958  97.6221 328.1104 0005907 249.6828 110.3787 15.48226596169686
AFR-1                   
1 56964U 23084AJ  26178.90253975  .00004523  00000+0  16509-3 0  9998
2 56964  97.6282 315.8521 0009159 305.5297  54.5087 15.28640874168869
METEOR-M2 3             
1 57166U 23091A   26178.91886249 -.00000004  00000+0  16972-4 0  9994
2 57166  98.6078 233.6775 0004858 129.3488 230.8122 14.24047580156047
UMKA 1 (RS40S)          
1 57172U 23091G   26178.94987956  .00006043  00000+0  27546-3 0  9997
2 57172  97.5051 237.6058 0014258  84.4704 275.8157 15.20939248165649
2023-091H               
1 57173U 23091H   26178.91764839  .00011519  00000+0  41254-3 0  9994
2 57173  97.5051 242.1972 0011050  80.4934 279.7554 15.28863575165948
2023-091J               
1 57174U 23091J   26178.96169799  .00004282  00000+0  23888-3 0  9996
2 57174  97.5053 231.9044 0014822 109.4397 250.8437 15.14000510165264
CUBEBEL 2 (EU11S)       
1 57175U 23091K   26178.91478584  .00013630  00000+0  47933-3 0  9991
2 57175  97.5054 242.2284 0011038  82.0190 278.2302 15.29416927165949
SITRO-AIS 5 (KATYS)     
1 57176U 23091L   26178.92971863  .00012772  00000+0  44537-3 0  9994
2 57176  97.5063 242.9322 0012300  70.0903 290.1661 15.29696691165985
ZORKIY-2M 1             
1 57177U 23091M   26178.93561311  .00006587  00000+0  29900-3 0  9993
2 57177  97.5091 237.8669 0014716  81.8623 278.4282 15.21040222165631
CUBESX-HSE 3 (RS42S)    
1 57178U 23091N   26178.95568149  .00012950  00000+0  42752-3 0  9993
2 57178  97.5095 244.6799 0011418  60.9784 299.2600 15.31479800166071
MONITOR-3 (RS58S)       
1 57180U 23091Q   26178.93860618  .00010713  00000+0  39330-3 0  9993
2 57180  97.5086 242.4642 0012641  67.3400 292.9175 15.28052672165933
MONITOR-4 (RS57S)       
1 57182U 23091S   26178.91706616  .00010743  00000+0  39337-3 0  9990
2 57182  97.5080 242.4143 0012661  67.6781 292.5799 15.28137301165933
